NORAD_CAT_ID,OBJECT_NAME,OBJECT_TYPE,EPOCH,MEAN_MOTION,ECCENTRICITY,INCLINATION,RA_OF_ASC_NODE,ARG_OF_PERICENTER,MEAN_ANOMALY,BSTAR,MEAN_MOTION_DOT,MEAN_MOTION_DDOT,TLE_LINE0,TLE_LINE1,TLE_LINE2,SEMIMAJOR_AXIS,PERIOD,APOGEE,PERIGEE,DECAYED
54087.0,STARLINK-5184,PAYLOAD,2022-10-25 18:00:00,15.90127947,0.0030609,53.2173,122.8418,56.0584,291.0963,-0.0041674,-0.01339453,0.00051118,0 STARLINK-5184,1 54087U 22136AN  22298.75001157 -.01339453  51118-3 -41674-2 0  9990,2 54087  53.2173 122.8418 0030609  56.0584 291.0963 15.90127947  1308,6680.062,90.559,322.374,281.48,0.0
54087.0,STARLINK-5184,PAYLOAD,2022-10-25 22:00:01,15.89696669,0.0029285,53.2174,121.9974,57.0129,164.7072,-0.0043073999999999,-0.01348959,0.00051571,0 STARLINK-5184,1 54087U 22136AN  22298.91668981 -.01348959  51571-3 -43074-2 0  9992,2 54087  53.2174 121.9974 0029285  57.0129 164.7072 15.89696669  1307,6681.27,90.583,322.701,283.569,0.0
54087.0,STARLINK-5184,PAYLOAD,2022-10-26 06:00:00,15.88827556,0.0025981,53.2175,120.3065,56.7119,273.1596,-0.0045251999999999,-0.01344576,0.00050851,0 STARLINK-5184,1 54087U 22136AN  22299.25001157 -.01344576  50851-3 -45252-2 0  9997,2 54087  53.2175 120.3065 0025981  56.7119 273.1596 15.88827556  1379,6683.706,90.633,322.936,288.206,0.0
54087.0,STARLINK-5184,PAYLOAD,2022-10-26 14:00:01,15.87914594,0.0022519,53.2174,118.6192,56.2322,20.8308,-0.0044629,-0.01258036,0.00044667,0 STARLINK-5184,1 54087U 22136AN  22299.58334491 -.01258036  44667-3 -44629-2 0  9993,2 54087  53.2174 118.6192 0022519  56.2322  20.8308 15.87914594  1437,6686.268,90.685,323.189,293.076,0.0
54087.0,STARLINK-5184,PAYLOAD,2022-10-26 22:00:00,15.87090057,0.0019123,53.2176,116.9363,54.4108,128.7641,-0.0049847,-0.01339501,0.00049699,0 STARLINK-5184,1 54087U 22136AN  22299.91667824 -.01339501  49699-3 -49847-2 0  9993,2 54087  53.2176 116.9363 0019123  54.4108 128.7641 15.87090057  1302,6688.583000000001,90.732,323.2390000000001,297.658,0.0
54087.0,STARLINK-5184,PAYLOAD,2022-10-27 14:00:01,15.85343699,0.0011702,53.2171,113.5711,52.2021,340.1764,-0.0053992,-0.01164803,0.0,0 STARLINK-5184,1 54087U 22136AN  22300.58335648 -.01164803  00000-0 -53992-2 0  9992,2 54087  53.2171 113.5711 0011702  52.2021 340.1764 15.85343699  1590,6693.494000000002,90.832,323.192,307.526,0.0
54087.0,STARLINK-5184,PAYLOAD,2022-10-27 22:00:00,15.84461796,0.0008468,53.2174,111.895,46.6099,88.7077,-0.005529,-0.01140982,0.0,0 STARLINK-5184,1 54087U 22136AN  22300.91667824 -.01140982  00000-0 -55290-2 0  9998,2 54087  53.2174 111.8950 0008468  46.6099  88.7077 15.84461796  1305,6695.978,90.883,323.513,312.172,0.0
54087.0,STARLINK-5184,PAYLOAD,2022-10-28 08:00:01,15.83402191,0.0004512999999999,53.2174,109.7975,25.5532,327.1075,-0.0060563,-0.01200325,0.0,0 STARLINK-5184,1 54087U 22136AN  22301.33335648 -.01200325  00000-0 -60563-2 0  9998,2 54087  53.2174 109.7975 0004513  25.5532 327.1075 15.83402191  1719,6698.965,90.943,323.853,317.806,0.0
54087.0,STARLINK-5184,PAYLOAD,2022-10-28 14:00:01,15.82750254,0.0003194999999999,53.2174,108.5427,358.8334,339.4171,-0.0062533,-0.01200298,0.0,0 STARLINK-5184,1 54087U 22136AN  22301.58335648 -.01200298  00000-0 -62533-2 0  9993,2 54087  53.2174 108.5427 0003195 358.8334 339.4171 15.82750254  1308,6700.804,90.981,324.81,320.528,0.0
54087.0,STARLINK-5184,PAYLOAD,2022-10-28 22:00:01,15.81858359,0.0003431,53.2173,106.8728,312.228,125.9011,-0.0062648,-0.01157991,0.0,0 STARLINK-5184,1 54087U 22136AN  22301.91668981 -.01157991  00000-0 -62648-2 0  9997,2 54087  53.2173 106.8728 0003431 312.2280 125.9011 15.81858359  1304,6703.321999999999,91.032,327.487,322.888,0.0
54087.0,STARLINK-5184,PAYLOAD,2022-10-29 12:00:00,15.80282866,0.0006437,53.2171,103.9496,273.697,246.6671,-0.0063146999999999,-0.01093878,0.0,0 STARLINK-5184,1 54087U 22136AN  22302.50001157 -.01093878  00000-0 -63147-2 0  9997,2 54087  53.2171 103.9496 0006437 273.6970 246.6671 15.80282866  1303,6707.776999999999,91.123,333.96,325.324,0.0
54087.0,STARLINK-5184,PAYLOAD,2022-10-29 22:00:01,15.79310885,0.0005309,53.2173,101.8698,271.0193,100.4438,-0.0075866,-0.01237178,0.0,0 STARLINK-5184,1 54087U 22136AN  22302.91668981 -.01237178  00000-0 -75866-2 0  9990,2 54087  53.2173 101.8698 0005309 271.0193 100.4438 15.79310885  1301,6710.529,91.179,335.957,328.831,0.0
54087.0,STARLINK-5184,PAYLOAD,2022-10-30 00:00:00,15.79076465,0.0004339,53.2173,101.4531,272.3718,213.0602,-0.0075689999999999,-0.01222127,0.0,0 STARLINK-5184,1 54087U 22136AN  22303.00001157 -.01222127  00000-0 -75690-2 0  9990,2 54087  53.2173 101.4531 0004339 272.3718 213.0602 15.79076465  1972,6711.193,91.193,335.97,330.146,0.0
54087.0,STARLINK-5184,PAYLOAD,2022-10-30 14:00:01,15.775391699999998,0.0002168,53.2174,98.5437,295.3436,266.4286,-0.0078761,-0.01188447,0.0,0 STARLINK-5184,1 54087U 22136AN  22303.58334491 -.01188447  00000-0 -78761-2 0  9991,2 54087  53.2174  98.5437 0002168 295.3436 266.4286 15.77539170  1306,6715.552,91.281,338.8730000000001,335.961,0.0
54087.0,STARLINK-5184,PAYLOAD,2022-10-30 22:00:01,15.766844199999998,0.0001176,53.2172,96.8862,8.3028,287.1417,-0.0083100999999999,-0.01204102,0.0,0 STARLINK-5184,1 54087U 22136AN  22303.91668981 -.01204102  00000-0 -83101-2 0  9993,2 54087  53.2172  96.8862 0001176   8.3028 287.1417 15.76684420  1308,6717.979,91.331,340.634,339.0540000000001,0.0
54087.0,STARLINK-5184,PAYLOAD,2022-10-31 14:00:01,15.749371599999998,0.0001539,53.2173,93.573,34.885,84.5998,-0.0088626,-0.01190324,0.0,0 STARLINK-5184,1 54087U 22136AN  22304.58334491 -.01190324  00000-0 -88626-2 0  9990,2 54087  53.2173  93.5730 0001539  34.8850  84.5998 15.74937160  1300,6722.946999999999,91.432,345.847,343.777,0.0
54087.0,STARLINK-5184,PAYLOAD,2022-10-31 22:00:01,15.73940474,0.0001551,53.2172,91.9216,32.5496,177.5025,-0.0059731,-0.00789294,0.0,0 STARLINK-5184,1 54087U 22136AN  22304.91668981 -.00789294  00000-0 -59731-2 0  9995,2 54087  53.2172  91.9216 0001551  32.5496 177.5025 15.73940474  1300,6725.785,91.49,348.6930000000001,346.607,0.0
54087.0,STARLINK-5184,PAYLOAD,2022-11-01 06:00:00,15.73230309,0.0001633,53.2175,90.269,30.6534,268.8249,-0.00030874,-0.00043783,0.0,0 STARLINK-5184,1 54087U 22136AN  22305.25001157 -.00043783  00000-0 -30874-3 0  9993,2 54087  53.2175  90.2690 0001633  30.6534 268.8249 15.73230309  2328,6727.809,91.531,350.772,348.575,0.0
54087.0,STARLINK-5184,PAYLOAD,2022-11-01 14:00:01,15.73261569,0.0001663,53.2164,88.6238,33.236,355.17,-0.00034762,-0.00049252,0.0,0 STARLINK-5184,1 54087U 22136AN  22305.58334491 -.00049252  00000-0 -34762-3 0  9996,2 54087  53.2164  88.6238 0001663  33.2360 355.1700 15.73261569  2384,6727.72,91.53,350.70300000000015,348.466,0.0
54087.0,STARLINK-5184,PAYLOAD,2022-11-01 22:00:00,15.73259826,0.0001851999999999,53.2158,86.975,26.8624,90.5147,-0.00022452,-0.00032094,0.0,0 STARLINK-5184,1 54087U 22136AN  22305.91667824 -.00032094  00000-0 -22452-3 0  9991,2 54087  53.2158  86.9750 0001852  26.8624  90.5147 15.73259826  1307,6727.725,91.53,350.836,348.344,0.0
54087.0,STARLINK-5184,PAYLOAD,2022-11-02 06:00:00,15.73197318,0.0001664,53.216,85.3233,29.3042,177.0725,3.792e-05,4.704e-05,0.0,0 STARLINK-5184,1 54087U 22136AN  22306.25001157  .00004704  00000-0  37920-4 0  9992,2 54087  53.2160  85.3233 0001664  29.3042 177.0725 15.73197318  2482,6727.903,91.533,350.88699999999994,348.648,0.0
54087.0,STARLINK-5184,PAYLOAD,2022-11-02 14:00:01,15.73186016,0.0001908,53.2168,83.6749,30.5142,264.7942,8.212100000000001e-05,0.00010913,0.0,0 STARLINK-5184,1 54087U 22136AN  22306.58334491  .00010913  00000-0  82121-4 0  9990,2 54087  53.2168  83.6749 0001908  30.5142 264.7942 15.73186016  1307,6727.935,91.534,351.084,348.516,0.0
54087.0,STARLINK-5184,PAYLOAD,2022-11-02 22:00:00,15.73205066,0.0002072,53.216,82.0261,23.6311,0.5352,-0.00017865,-0.00025625,0.0,0 STARLINK-5184,1 54087U 22136AN  22306.91667824 -.00025625  00000-0 -17865-3 0  9996,2 54087  53.2160  82.0261 0002072  23.6311   0.5352 15.73205066  2595,6727.880999999999,91.533,351.14,348.352,0.0
54087.0,STARLINK-5184,PAYLOAD,2022-11-03 14:00:01,15.73291941,0.0002108,53.2159,78.7265,24.9383,177.173,-0.00052763,-0.00074318,0.0,0 STARLINK-5184,1 54087U 22136AN  22307.58334491 -.00074318  00000-0 -52763-3 0  9990,2 54087  53.2159  78.7265 0002108  24.9383 177.1730 15.73291941  2691,6727.6330000000025,91.528,350.916,348.08,0.0
54087.0,STARLINK-5184,PAYLOAD,2022-11-03 22:00:00,15.73273172,0.0002263,53.2155,77.077,22.3219,268.8049,-0.00026559,-0.0003785,0.0,0 STARLINK-5184,1 54087U 22136AN  22307.91667824 -.00037850  00000-0 -26559-3 0  9990,2 54087  53.2155  77.0770 0002263  22.3219 268.8049 15.73273172  1306,6727.687,91.529,351.074,348.029,0.0
54087.0,STARLINK-5184,PAYLOAD,2022-11-04 14:00:01,15.73199499,0.0002341,53.2161,73.7776,23.5762,85.5265,0.00040797,0.00057028,0.0,0 STARLINK-5184,1 54087U 22136AN  22308.58334491  .00057028  00000-0  40797-3 0  9992,2 54087  53.2161  73.7776 0002341  23.5762  85.5265 15.73199499  1308,6727.897,91.533,351.337,348.18699999999984,0.0
54087.0,STARLINK-5184,PAYLOAD,2022-11-04 22:00:01,15.73234114,0.0002402,53.2159,72.128,20.044,177.9844,-0.00072164,-0.00100857,0.0,0 STARLINK-5184,1 54087U 22136AN  22308.91668981 -.00100857  00000-0 -72164-3 0  9997,2 54087  53.2159  72.1280 0002402  20.0440 177.9844 15.73234114  2901,6727.7980000000025,91.531,351.279,348.047,0.0
54087.0,STARLINK-5184,PAYLOAD,2022-11-05 14:00:01,15.7310394,0.0002464,53.216,68.8291,17.3427,358.4581,3.9845e-06,-6.4e-07,0.0,0 STARLINK-5184,1 54087U 22136AN  22309.58335648 -.00000064  00000-0  39845-5 0  9991,2 54087  53.2160  68.8291 0002464  17.3427 358.4581 15.73103940  1308,6728.169,91.539,351.69199999999995,348.376,0.0
54087.0,STARLINK-5184,PAYLOAD,2022-11-05 22:00:01,15.73128297,0.0002572,53.2156,67.1798,15.0019,89.6041,0.00049592,0.00069348,0.0,0 STARLINK-5184,1 54087U 22136AN  22309.91668981  .00069348  00000-0  49592-3 0  9994,2 54087  53.2156  67.1798 0002572  15.0019  89.6041 15.73128297  3060,6728.1,91.537,351.695,348.2340000000001,0.0
